satname,norad_id,inclination_deg,eccentricity,mean_motion_rev_per_day,perigee_km,apogee_km,l1,l2
STARLINK-1008,44714,53.1549,0.0004577,15.35018175,457.73629855942727,463.99672237290724,1 44714U 19074B   26108.93251365  .00047231  00000+0  13727-2 0  9990,2 44714  53.1549 351.0208 0004577 129.7267 230.4139 15.35018175355040
STARLINK-1012,44718,53.1604,0.0004404,15.34357849,459.815763512981,465.84128594716276,1 44718U 19074F   26108.93321665  .00060000  00000+0  17748-2 0  9991,2 44718  53.1604 351.3066 0004404 119.8606 240.2834 15.34357849355030
STARLINK-1017,44723,53.0522,0.0003057,15.27682041,480.64619439527087,484.8409367730692,1 44723U 19074L   26108.95295447  .00026728  00000+0  98407-3 0  9998,2 44723  53.0522 345.1632 0003057 153.8319 206.2834 15.27682041355114
STARLINK-1019,44724,53.0348,0.0006063,15.96954439,278.83552900265477,286.9126710625551,1 44724U 19074M   26109.00002315  .00321698  52885-4  73227-3 0  9996,2 44724  53.0348 291.8593 0006063 293.8591  28.2387 15.96954439  6039
STARLINK-1020,44725,53.1586,0.0002081,15.33495505,463.96877268106164,466.81704983012696,1 44725U 19074N   26108.99851640  .00106666  00000+0  32141-2 0  9999,2 44725  53.1586  16.2418 0002081 160.6813 199.4268 15.33495505354674
STARLINK-1036,44741,53.044,0.0004897,15.64464343,371.4728373608514,378.086644016681,1 44741U 19074AE  26108.96924792  .00136543  00000+0  13759-2 0  9994,2 44741  53.0440 352.2802 0004897 134.2610 225.8807 15.64464343355011
STARLINK-1039,44744,53.0648,0.0001827,15.25097776,489.2369484368137,491.7467454174812,1 44744U 19074AH  26108.50204005  .00027481  00000+0  10932-2 0  9995,2 44744  53.0648  31.6305 0001827  68.4456 291.6736 15.25097776354421
STARLINK-1042,44747,53.043,4.81e-05,15.5195382,410.69542061402626,411.3485377078223,1 44747U 19074AL  26108.73554058  .00021703  00000+0  36175-3 0  9998,2 44747  53.0430 262.3361 0000481 313.5126  46.5842 15.51953820356282
STARLINK-1043,44748,53.052,0.0002247,15.56335607,396.75030211587455,399.7956207525431,1 44748U 19074AM  26108.95505563  .00034402  00000+0  48450-3 0  9999,2 44748  53.0520 359.8229 0002247 146.1896 213.9258 15.56335607354915
STARLINK-1046,44751,53.0515,0.0001552,15.48615295,419.72072353093154,421.83110609969026,1 44751U 19074AQ  26108.17476523  .00049332  00000+0  91121-3 0  9991,2 44751  53.0515  22.5404 0001552 329.7997  30.2921 15.48615295354520
STARLINK-1047,44752,53.0704,0.0002682,15.33511503,463.5098935326241,467.18073744665344,1 44752U 19074AR  26108.85029565  .00007701  00000+0  24552-3 0  9995,2 44752  53.0704 318.2572 0002682  29.8977 330.2177 15.33511503355509
STARLINK-1048,44753,53.0426,0.0002755,15.60622001,383.99576522610005,387.72272715775307,1 44753U 19074AS  26108.89222490  .00072865  00000+0  86257-3 0  9995,2 44753  53.0426 333.8446 0002755 181.6504 178.4500 15.60622001355269
STARLINK-1063,44768,53.1585,0.0003892,15.34057934,461.05727056926844,466.38297215253624,1 44768U 19074BH  26108.93927087  .00144073  00000+0  42392-2 0  9992,2 44768  53.1585  31.9295 0003892 142.6245 217.5029 15.34057934354484
STARLINK-1067,44771,53.0495,0.000603,15.65364385,368.1205489972017,376.26144456131715,1 44771U 19074BL  26108.44514687  .00135167  00000+0  13141-2 0  9994,2 44771  53.0495  10.1349 0006030 131.2764 228.8770 15.65364385354723
STARLINK-1068,44772,53.0462,0.0003935,15.6900655,359.0883653107194,364.3926489088144,1 44772U 19074BM  26108.94094742  .00056631  00000+0  48271-3 0  9996,2 44772  53.0462 341.8639 0003935  82.6719 277.4745 15.69006550355155
STARLINK-1114,44927,53.0444,0.0004696,15.57340667,392.1762898528568,398.53795553289,1 44927U 20001P   26108.94037605  .00052435  00000+0  70615-3 0  9990,2 44927  53.0444 135.0645 0004696 323.9950  36.0744 15.57340667346357
STARLINK-1123,44930,53.1469,0.0004031,15.31692439,468.0017428636593,473.52332566818495,1 44930U 20001S   26108.15879107  .00029372  00000+0  95462-3 0  9999,2 44930  53.1469 161.8018 0004031  32.6598 327.4652 15.31692439345910
STARLINK-1094,44941,53.1562,0.0003403,15.33298202,463.6509238841254,468.30902989859624,1 44941U 20001AD  26108.36197317  .00011169  00000+0  35318-3 0  9999,2 44941  53.1562 134.9263 0003403  47.8211 312.3079 15.33298202346314
STARLINK-1122,44949,53.1579,0.0001121,15.30860725,472.47493356321684,474.0110129532204,1 44949U 20001AM  26108.35298310  .00015664  00000+0  52901-3 0  9992,2 44949  53.1579 135.3438 0001121  84.5307 275.5822 15.30860725346305
STARLINK-1080,44961,53.0471,0.0002477,15.53951885,403.5208498288248,406.881315514981,1 44961U 20001AZ  26108.18824384  .00049755  00000+0  75989-3 0  9992,2 44961  53.0471  98.4542 0002477 351.3176   8.7790 15.53951885346806
STARLINK-1090,44968,53.1523,0.0003457,15.320164,467.4296548386419,472.1643163962972,1 44968U 20001BG  26108.31586434  .00020532  00000+0  66494-3 0  9998,2 44968  53.1523 122.2910 0003457  38.5138 321.6110 15.32016400346487
STARLINK-1132,45044,53.154,0.0004854,15.48711801,417.1934129299061,423.79352338839544,1 45044U 20006A   26108.61002476  .00065739  00000+0  12046-2 0  9992,2 45044  53.1540  64.0262 0004854  38.3783 321.7570 15.48711801343102
STARLINK-1131,45047,53.1586,0.0002621,15.32210479,467.4240144590203,471.01339832031044,1 45047U 20006D   26108.23071478  .00029326  00000+0  93799-3 0  9998,2 45047  53.1586  97.1380 0002621  78.7636 281.3661 15.32210479342602
STARLINK-1134,45048,53.0308,0.0003926,15.48790339,417.59457848411876,422.93268265924326,1 45048U 20006E   26108.05314435  .00054102  00000+0  99164-3 0  9994,2 45048  53.0308  50.3961 0003926 335.0965  24.9852 15.48790339343231
STARLINK-1156,45054,53.158,0.0001463,15.30862573,472.235103354049,474.23981552088026,1 45054U 20006L   26108.98883747  .00031507  00000+0  10497-2 0  9995,2 45054  53.1580  93.7775 0001463  99.7843 260.3323 15.30862573342710
STARLINK-1159,45057,53.0383,0.0002562,15.99626078,273.75072657889814,277.16002731284516,1 45057U 20006P   26109.00002315  .00311302  51676-4  61124-3 0  9994,2 45057  53.0383  29.5305 0002562 161.0205 254.8310 15.99626078  6045
STARLINK-1166,45060,53.0489,0.0003196,15.51666553,409.6898086365354,414.02997464967484,1 45060U 20006S   26108.91275507  .00055562  00000+0  91971-3 0  9998,2 45060  53.0489  80.0833 0003196  42.7441 317.3816 15.51666553342897
STARLINK-1169,45061,53.1549,0.0003765,15.33421666,463.03592920088704,468.18927265038474,1 45061U 20006T   26108.92343214  .00034668  00000+0  10647-2 0  9995,2 45061  53.1549  93.7224 0003765  75.4816 284.6603 15.33421666342717
STARLINK-1171,45062,53.0451,0.0004821,15.68118879,361.03325815484914,367.53430027016566,1 45062U 20006U   26107.83314900  .00038527  00000+0  34285-3 0  9998,2 45062  53.0451  57.0618 0004821  89.8283 270.3286 15.68118879343122
STARLINK-1133,45064,53.1592,0.0001536,15.3091024,472.0428914370159,474.1475899813622,1 45064U 20006W   26108.17800444  .00032285  00000+0  10736-2 0  9990,2 45064  53.1592  74.3466 0001536 103.6317 256.4855 15.30910240342922
STARLINK-1167,45071,53.158,0.0003742,15.33045601,464.1704129954551,469.2931127776001,1 45071U 20006AD  26108.31857319  .00036274  00000+0  11265-2 0  9997,2 45071  53.1580  73.5510 0003742  83.0171 277.1257 15.33045601342949
STARLINK-1168,45072,53.1597,0.000142,15.30888244,472.1879825147171,474.1337511088923,1 45072U 20006AE  26108.29001674  .00035391  00000+0  11761-2 0  9990,2 45072  53.1597  74.0388 0001420 107.7539 252.3617 15.30888244342939
STARLINK-1172,45074,53.1568,0.0003632,15.33883116,461.7548084675691,466.72511109115294,1 45074U 20006AG  26108.30806284  .00036752  00000+0  11114-2 0  9998,2 45074  53.1568  73.2960 0003632  85.0899 275.0518 15.33883116342949
STARLINK-1153,45080,53.1606,0.0004247,15.33030638,463.8692672625575,469.68333662122586,1 45080U 20006AN  26108.88927465  .00061726  00000+0  19032-2 0  9999,2 45080  53.1606  70.8022 0004247 101.1656 258.9824 15.33030638343039
STARLINK-1151,45081,53.0522,0.0004757,15.70671913,353.7716354864715,360.17942154610137,1 45081U 20006AP  26108.53476941  .00078741  00000+0  62287-3 0  9996,2 45081  53.0522  43.3633 0004757 106.0074 254.1468 15.70671913343370
STARLINK-1185,45087,53.162,0.0002037,15.40646626,442.8100012237628,445.58942119991025,1 45087U 20006AV  26108.57820624  .00052478  00000+0  12693-2 0  9991,2 45087  53.1620  55.2525 0002037 120.8367 239.2839 15.40646626343226
STARLINK-1183,45088,53.1609,0.000171,15.30927203,471.87307981348386,474.21618393158406,1 45088U 20006AW  26108.85301570  .00026156  00000+0  87233-3 0  9994,2 45088  53.1609  55.9894 0001710 131.7250 228.3898 15.30927203343236
STARLINK-1152,45096,53.0377,0.0002531,15.43105442,435.2256519669663,438.67544928509324,1 45096U 20006BE  26108.15998768  .00030332  00000+0  68173-3 0  9990,2 45096  53.0377  19.5871 0002531  46.0540 314.0673 15.43105442343678
STARLINK-1184,45098,53.0525,0.0001442,15.12192924,528.5176994863868,530.5098659721261,1 45098U 20006BG  26108.61033525  .00020084  00000+0  11640-2 0  9993,2 45098  53.0525  64.8451 0001442 262.0388  98.0439 15.12192924343072
STARLINK-1193,45100,53.0508,0.0006205,15.61923152,377.90752416214127,386.2969810746408,1 45100U 20006BJ  26108.52370210  .00093367  00000+0  10463-2 0  9998,2 45100  53.0508  36.6805 0006205 103.2154 256.9552 15.61923152343469
STARLINK-1143,45179,53.044,0.0004533,15.72868487,347.6533146335296,353.7536814290452,1 45179U 20012B   26108.78469794  .00150860  00000+0  10746-2 0  9991,2 45179  53.0440 132.2354 0004533 325.8462  34.2263 15.72868487342217
STARLINK-1202,45183,53.1571,0.0001612,15.3070416,472.60563395814916,474.81466947986246,1 45183U 20012F   26108.46385124  .00048291  00000+0  16068-2 0  9992,2 45183  53.1571 214.4856 0001612  20.4025 339.7040 15.30704160341043
STARLINK-1216,45185,53.1568,0.0001582,15.30955617,471.8760177326585,474.04370477956036,1 45185U 20012H   26108.77906581  .00011409  00000+0  38764-3 0  9993,2 45185  53.1568 212.9798 0001582  32.5831 327.5268 15.30955617341035
